targetname,datetime_jd,datetime_str,H,G,e,q,incl,Omega,w,Tp_jd,n,M,nu,a,Q,P,orbit_class
(2020 AV2),2458000.500800724,A.D. 2017-Sep-04 00:01:09.1826,16.4,0.15,0.176939992763531,0.4571704131659656,15.86865150426571,6.71748760995639,187.3290979482425,2457999.837062844,2.380861591874194,1.580268025195585,2.295755970706197,0.5554521045202703,0.6537337958745749,151.2057656894751,Atira
163693 Atira (2003 CP20),2458000.500800724,A.D. 2017-Sep-04 00:01:09.1826,16.29,0.15,0.3221493983091241,0.5023422250037216,25.61781699787421,103.8991470281328,252.9324099116148,2457947.567103248,1.544918328059469,81.77823940323702,117.9662156855785,0.7410810343026112,0.9798198436015009,233.0220267709468,Atira
(2010 TK7),2458000.500800724,A.D. 2017-Sep-04 00:01:09.1826,20.8,0.15,0.1905118996766999,0.8091168044327298,20.8915075994406,96.48582764815555,45.9246286000416,2458136.506330783,0.9862861751906409,225.8596259531518,212.5486551432918,0.999541320137477,1.189965835842224,365.0056231705925,Aten
3753 Cruithne (1986 TO),2458000.500800724,A.D. 2017-Sep-04 00:01:09.1826,15.57,0.15,0.5148562194204297,0.4840480179647836,19.80537823169738,126.2343008307264,43.83143879612247,2458104.1857896,0.988956312657948,257.4600757228131,211.9651575066673,0.9977413652227439,1.511434712480704,364.0201244405361,Aten
54509 YORP (2000 PH5),2458000.500800724,A.D. 2017-Sep-04 00:01:09.1826,22.7,0.15,0.2302177130548467,0.7745711186191152,1.599311122194673,278.2812914075205,278.8659657564477,2457918.920472869,0.976481444497443,79.66167638651652,106.0541330119018,1.006221020871974,1.237870923124833,368.6705999674965,Apollo
2063 Bacchus (1977 HB),2458000.500800724,A.D. 2017-Sep-04 00:01:09.1826,17.25,0.15,0.349359631358889,0.7013461970878747,9.433079403814444,33.10335970762815,55.31527081155184,2457872.036613339,0.880677522994356,113.1355223397185,143.1548496998799,1.07793218941005,1.454518181732225,408.7761871973053,Apollo
1221 Amor (1932 EA1),2458000.500800724,A.D. 2017-Sep-04 00:01:09.1826,17.39,0.15,0.4355970558915085,1.083139497082468,11.8793799976214,171.3441625303935,26.65230274296514,2457925.28265893,0.37073312367001,27.88585666392878,67.89573788492197,1.919089027420565,2.755038557758662,971.0489217587053,Amor
433 Eros (A898 PA),2458000.500800724,A.D. 2017-Sep-04 00:01:09.1826,10.42,0.46,0.2225890136860783,1.133418594756021,10.82758633061496,304.3221711578705,178.8165874589722,2457873.186408332,0.5598795237333677,71.28072137698699,96.905961628511,1.457940027488038,1.782461460220054,642.9954744539708,Amor
3908 Nyx (1980 PA),2458000.500800724,A.D. 2017-Sep-04 00:01:09.1826,17.35,0.15,0.4595220945810705,1.041606469829217,2.185776786800657,261.2552857019525,126.6097606908848,2458195.640938395,0.3683964935889817,288.1110575235693,235.7870025338264,1.927195282889239,2.81278409594926,977.2079980805962,Amor
434 Hungaria (A898 RB),2458000.500800724,A.D. 2017-Sep-04 00:01:09.1826,11.19,0.15,0.07347894205087335,1.801306813112774,22.50925980668665,175.3286500295067,123.9641172340964,2457982.947719963,0.3635845983744233,6.38202981876395,7.411513957542677,1.944161762604731,2.087016712096688,990.1409509906362,Inner Main-belt Asteroid
1876 Napolitania (1970 BA),2458000.500800724,A.D. 2017-Sep-04 00:01:09.1826,15.14,0.15,0.04807357090237283,1.869877772514279,23.10958881359882,304.4822751488364,243.3388045256185,2457873.010711096,0.3580051896148362,45.64211371117737,49.7497247339025,1.964309126585359,2.058740480656438,1005.572015275281,Inner Main-belt Asteroid
2001 Einstein (1973 EB),2458000.500800724,A.D. 2017-Sep-04 00:01:09.1826,13.04,0.15,0.09855536695517404,1.743029879370619,22.68292706517401,357.0837984017355,217.742373582839,2457589.680415182,0.3665687276404697,150.5939060168607,155.5935714344569,1.933596158294443,2.124162437218267,982.0805018399924,Inner Main-belt Asteroid
2 Pallas (A802 FA),2458000.500800724,A.D. 2017-Sep-04 00:01:09.1826,4.21,0.11,0.230597432443547,2.133618836115411,34.83791698180755,173.0871796412062,309.9915596978381,2458320.736336045,0.2134318680979815,291.6515314650717,265.1712340031518,2.773085152148082,3.412551468180753,1686.720934451703,Main-belt Asteroid
6 Hebe (A847 NA),2458000.500800724,A.D. 2017-Sep-04 00:01:09.1826,5.65,0.24,0.2028017299424128,1.933138376886165,14.73749354662419,138.6480684528331,239.8606067450182,2458270.34473973,0.2610112228957446,289.5677034890512,266.3091498487018,2.424915418778469,2.916692460670772,1379.251037583906,Main-belt Asteroid
6522 Aci (1991 NQ),2458000.500800724,A.D. 2017-Sep-04 00:01:09.1826,13.08,0.15,0.1988934840387566,1.910730892174725,22.10877840845896,294.4470663046843,314.1826700578641,2457743.585771427,0.2675717027198211,68.74319184348022,91.46242504085284,2.385114655923187,2.85949841967165,1345.433752301387,Main-belt Asteroid
202930 Ivezic (1998 SG172),2458000.500800724,A.D. 2017-Sep-04 00:01:09.1826,16.65,0.15,0.1315080089849179,2.361170626105476,4.560885109130304,346.2460303462452,8.031387467955582,2457626.047181509,0.2198678567668729,82.33031471542759,97.42304129589259,2.718701669713465,3.076232713321455,1637.347110640688,Main-belt Asteroid
911 Agamemnon (A919 FB),2458000.500800724,A.D. 2017-Sep-04 00:01:09.1826,7.97,0.15,0.06564565269009928,4.929694637164381,21.76284636117768,338.0082186539469,81.03647841760908,2459726.878629178,0.08132825653118826,219.5967010977773,215.0924069106177,5.276043988404894,5.622393339645408,4426.505809354772,Jupiter Trojan
1143 Odysseus (1930 BH),2458000.500800724,A.D. 2017-Sep-04 00:01:09.1826,8.4,0.15,0.08927169410009027,4.781027181428747,3.137633327668599,221.2893015993796,236.7346167294357,2455959.217321195,0.08194180136845895,167.2664454163351,169.2987771069761,5.249674519234928,5.718321857041107,4393.362044620259,Jupiter Trojan
1172 Aneas (1930 UA),2458000.500800724,A.D. 2017-Sep-04 00:01:09.1826,8.28,0.15,0.1036916550635377,4.676914521189607,16.66406851204069,247.3261376867933,50.91350047416434,2459672.186875519,0.08268963691451384,221.7688854401664,214.5723713810433,5.217974983286745,5.759035445383883,4353.628984635342,Jupiter Trojan
3317 Paris (1984 KF),2458000.500800724,A.D. 2017-Sep-04 00:01:09.1826,8.54,0.15,0.1265704985173254,4.561647285523364,27.86422934490474,135.8955541076668,149.9421424386458,2459586.563257617,0.08257779961261658,229.0264522615819,219.1566649077665,5.222685148348918,5.883723011174473,4359.525219717741,Jupiter Trojan
5145 Pholus (1992 AD),2458000.500800724,A.D. 2017-Sep-04 00:01:09.1826,7.1,0.15,0.5709866028119006,8.748739647867371,24.67489727843008,119.3526465568658,355.1202999118659,2448516.393215818,0.0107026695527898,101.5052694843613,151.0798327122833,20.39269567153288,32.03665169519838,33636.46781995253,Centaur
5335 Damocles (1991 DA),2458000.500800724,A.D. 2017-Sep-04 00:01:09.1826,13.3,0.15,0.8668984792157453,1.574054355297184,61.8747789854353,314.1362809823877,191.2633309804601,2463102.494408997,0.02423533416663039,236.3514799874867,188.4321803661767,11.82596822352301,22.07788209174883,14854.34438513679,Centaur
49036 Pelion (1998 QM107),2458000.500800724,A.D. 2017-Sep-04 00:01:09.1826,10.4,0.15,0.1372673800455041,17.17775280020325,9.348359609288268,126.9448712570632,152.0142598751359,2448844.842976395,0.01109350745296616,101.5683583110057,116.3020462567914,19.91086508483854,22.64397736947384,32451.41372341566,Centaur
15760 Albion (1992 QB1),2458000.500800724,A.D. 2017-Sep-04 00:01:09.1826,7.3,0.15,0.06576932877851338,40.84566092238234,2.187538622964997,359.4360521111228,0.6000488571811619,2448910.857278601,0.003409308993891832,30.98940341124431,35.15937319105657,43.72117313273124,46.59668534308015,105593.245037332,TransNeptunian Object
15788 (1993 SB),2458000.500800724,A.D. 2017-Sep-04 00:01:09.1826,7.95,0.15,0.3166199615841924,26.73165364594368,1.938557207798048,354.8547658619152,79.43329261372426,2459953.986543293,0.00402864286192,352.1301036073371,344.1135916743089,39.1168195487715,51.50198545159931,89360.11762244634,TransNeptunian Object
15789 (1993 SC),2458000.500800724,A.D. 2017-Sep-04 00:01:09.1826,7.0,0.15,0.1853148396987059,32.06010291611572,5.162555956306647,354.7016337880714,315.6583153085459,2440730.216202802,0.003992467725638388,68.95105386979331,90.06784324610094,39.35275180937256,46.6454007026294,90169.79591048205,TransNeptunian Object
1I/'Oumuamua (A/2017 U1),2458000.500800724,A.D. 2017-Sep-04 00:01:09.1826,22.08,0.15,1.199726877505185,0.2560050547317711,122.7381082544464,24.60122483942017,241.879140445224,2458005.997388104,0.6791817878760652,-3.733182043703066,307.5206326861053,-1.281775682519874,9.999999999999998e+99,9.999999999999998e+99,Hyperbolic Asteroid
